CCSDS_OMM_VERS,COMMENT,CREATION_DATE,ORIGINATOR,OBJECT_NAME,OBJECT_ID,CENTER_NAME,REF_FRAME,TIME_SYSTEM,MEAN_ELEMENT_THEORY,EPOCH,MEAN_MOTION,ECCENTRICITY,INCLINATION,RA_OF_ASC_NODE,ARG_OF_PERICENTER,MEAN_ANOMALY,EPHEMERIS_TYPE,CLASSIFICATION_TYPE,NORAD_CAT_ID,ELEMENT_SET_NO,REV_AT_EPOCH,BSTAR,MEAN_MOTION_DOT,MEAN_MOTION_DDOT,SEMIMAJOR_AXIS,PERIOD,APOAPSIS,PERIAPSIS,OBJECT_TYPE,RCS_SIZE,COUNTRY_CODE,LAUNCH_DATE,SITE,DECAY_DATE,FILE,GP_ID,TLE_LINE0,TLE_LINE1,TLE_LINE2
"3.0","GENERATED VIA SPACE-TRACK.ORG API","2026-03-25T17:29:05","18 SPCS","H-2A DEB *","2018-084DF","EARTH","TEME","UTC","SGP4","2026-03-25T14:36:11.009664","14.65884173","0.00280700","97.9593","317.4807","265.1885","94.6114","0","U","48551","999","26981","0.00024779189000","0.00001314","0.0000000000000","7052.375","98.234","694.036","654.444","DEBRIS","SMALL","JPN","2018-10-29","TNSTA","","5096884","317018181","0 H-2A DEB *","1 48551U 18084DF  26084.60846076  .00001314  00000-0  24779-3 0  9992","2 48551  97.9593 317.4807 0028070 265.1885  94.6114 14.65884173269817"
"3.0","GENERATED VIA SPACE-TRACK.ORG API","2026-03-24T04:52:42","18 SPCS","NOAA 17 DEB","2002-032AC","EARTH","TEME","UTC","SGP4","2026-03-23T16:37:58.991232","14.57870842","0.00063116","98.7378","70.9481","110.8656","249.3218","0","U","48611","999","25905","0.00209903100000","0.00009580","0.0000000000000","7078.194","98.774","704.527","695.592","DEBRIS","SMALL","US","2002-06-24","AFWTR","","5095836","316900828","0 NOAA 17 DEB","1 48611U 02032AC  26082.69304388  .00009580  00000-0  20990-2 0  9990","2 48611  98.7378  70.9481 0006312 110.8656 249.3218 14.57870842259058"
"3.0","GENERATED VIA SPACE-TRACK.ORG API","2026-03-25T17:29:05","18 SPCS","NOAA 17 DEB","2002-032AH","EARTH","TEME","UTC","SGP4","2026-03-25T09:45:14.578272","14.57601569","0.00082848","98.7143","66.5137","103.7497","256.4623","0","U","48616","999","25849","0.00187763430000","0.00008515","0.0000000000000","7079.066","98.792","706.796","695.066","DEBRIS","SMALL","US","2002-06-24","AFWTR","","5096884","317018704","0 NOAA 17 DEB","1 48616U 02032AH  26084.40641873  .00008515  00000-0  18776-2 0  9995","2 48616  98.7143  66.5137 0008285 103.7497 256.4623 14.57601569258491"
"3.0","GENERATED VIA SPACE-TRACK.ORG API","2026-03-25T04:32:27","18 SPCS","NOAA 17 DEB","2002-032AK","EARTH","TEME","UTC","SGP4","2026-03-24T22:02:56.153472","14.72842513","0.00095874","98.6632","69.5956","74.3418","285.8845","0","U","48702","999","26434","0.00286538990000","0.00018339","0.0000000000000","7030.145","97.770","658.750","645.270","DEBRIS","SMALL","US","2002-06-24","AFWTR","","5096755","316985038","0 NOAA 17 DEB","1 48702U 02032AK  26083.91870548  .00018339  00000-0  28654-2 0  9990","2 48702  98.6632  69.5956 0009587  74.3418 285.8845 14.72842513264349"
"3.0","GENERATED VIA SPACE-TRACK.ORG API","2026-03-25T17:29:05","18 SPCS","NOAA 17 DEB","2002-032AQ","EARTH","TEME","UTC","SGP4","2026-03-25T15:16:43.926528","14.78357580","0.00368902","98.7700","146.3998","197.1780","162.8182","0","U","48707","999","26653","0.00179721490000","0.00013186","0.0000000000000","7012.650","97.405","660.385","608.645","DEBRIS","SMALL","US","2002-06-24","AFWTR","","5096884","317018232","0 NOAA 17 DEB","1 48707U 02032AQ  26084.63661952  .00013186  00000-0  17972-2 0  9998","2 48707  98.7700 146.3998 0036890 197.1780 162.8182 14.78357580266536"
"3.0","GENERATED VIA SPACE-TRACK.ORG API","2026-03-25T17:29:05","18 SPCS","NOAA 17 DEB","2002-032AS","EARTH","TEME","UTC","SGP4","2026-03-25T10:19:58.722528","14.54176912","0.00099356","98.7999","77.7985","134.1306","226.0708","0","U","48709","999","26307","0.00165621090000","0.00006968","0.0000000000000","7090.176","99.025","719.085","704.996","DEBRIS","SMALL","US","2002-06-24","AFWTR","","5096884","317018733","0 NOAA 17 DEB","1 48709U 02032AS  26084.43054077  .00006968  00000-0  16562-2 0  9996","2 48709  98.7999  77.7985 0009936 134.1306 226.0708 14.54176912263072"
"3.0","GENERATED VIA SPACE-TRACK.ORG API","2026-03-25T04:32:27","18 SPCS","NOAA 17 DEB","2002-032AY","EARTH","TEME","UTC","SGP4","2026-03-24T23:05:20.810688","14.91627766","0.00145491","98.7331","92.1146","56.5200","303.7404","0","U","48715","999","26091","0.00402805560000","0.00040688","0.0000000000000","6970.997","96.539","603.004","582.719","DEBRIS","SMALL","US","2002-06-24","AFWTR","","5096755","316985542","0 NOAA 17 DEB","1 48715U 02032AY  26083.96204642  .00040688  00000-0  40281-2 0  9997","2 48715  98.7331  92.1146 0014549  56.5200 303.7404 14.91627766260910"
"3.0","GENERATED VIA SPACE-TRACK.ORG API","2026-03-25T04:32:27","18 SPCS","NOAA 17 DEB","2002-032BA","EARTH","TEME","UTC","SGP4","2026-03-24T16:40:15.031488","14.55098446","0.00075066","98.7705","74.4182","132.0059","228.1777","0","U","48717","999","26295","0.00177019710000","0.00007599","0.0000000000000","7087.182","98.962","714.367","703.727","DEBRIS","SMALL","US","2002-06-24","AFWTR","","5096755","316985043","0 NOAA 17 DEB","1 48717U 02032BA  26083.69461842  .00007599  00000-0  17702-2 0  9992","2 48717  98.7705  74.4182 0007507 132.0059 228.1777 14.55098446262954"
"3.0","GENERATED VIA SPACE-TRACK.ORG API","2026-03-25T04:32:27","18 SPCS","NOAA 17 DEB","2002-032BB","EARTH","TEME","UTC","SGP4","2026-03-24T14:44:10.822560","14.62055797","0.00158409","98.9635","144.8872","60.5158","299.7618","0","U","48718","999","26383","0.00184386500000","0.00009229","0.0000000000000","7064.681","98.491","697.737","675.355","DEBRIS","SMALL","US","2002-06-24","AFWTR","","5096755","316985543","0 NOAA 17 DEB","1 48718U 02032BB  26083.61401415  .00009229  00000-0  18439-2 0  9995","2 48718  98.9635 144.8872 0015841  60.5158 299.7618 14.62055797263838"
"3.0","GENERATED VIA SPACE-TRACK.ORG API","2026-03-24T04:52:42","18 SPCS","NOAA 17 DEB","2002-032BD","EARTH","TEME","UTC","SGP4","2026-03-23T11:25:47.309664","14.54031398","0.00273076","98.8338","86.5601","239.6926","120.1567","0","U","48720","999","26251","0.00209684690000","0.00008847","0.0000000000000","7090.649","99.035","731.877","693.151","DEBRIS","SMALL","US","2002-06-24","AFWTR","","5095836","316901362","0 NOAA 17 DEB","1 48720U 02032BD  26082.47624201  .00008847  00000-0  20968-2 0  9996","2 48720  98.8338  86.5601 0027308 239.6926 120.1567 14.54031398262511"
"3.0","GENERATED VIA SPACE-TRACK.ORG API","2026-03-25T17:29:05","18 SPCS","NOAA 17 DEB","2002-032BF","EARTH","TEME","UTC","SGP4","2026-03-25T00:36:55.736640","14.88710484","0.00111590","98.6985","111.1097","191.4677","168.6285","0","U","48722","999","26541","0.00267290720000","0.00025010","0.0000000000000","6980.101","96.728","609.755","594.176","DEBRIS","SMALL","US","2002-06-24","AFWTR","","5096884","317018738","0 NOAA 17 DEB","1 48722U 02032BF  26084.02564510  .00025010  00000-0  26729-2 0  9999","2 48722  98.6985 111.1097 0011159 191.4677 168.6285 14.88710484265411"
"3.0","GENERATED VIA SPACE-TRACK.ORG API","2026-03-25T17:29:05","18 SPCS","NOAA 17 DEB","2002-032BG","EARTH","TEME","UTC","SGP4","2026-03-25T10:12:52.170912","14.49606106","0.00217829","98.8162","73.3001","129.8841","230.4272","0","U","48723","999","26232","0.00157735200000","0.00006032","0.0000000000000","7105.072","99.337","742.414","711.460","DEBRIS","SMALL","US","2002-06-24","AFWTR","","5096884","317018238","0 NOAA 17 DEB","1 48723U 02032BG  26084.42560383  .00006032  00000-0  15774-2 0  9999","2 48723  98.8162  73.3001 0021783 129.8841 230.4272 14.49606106262320"
"3.0","GENERATED VIA SPACE-TRACK.ORG API","2026-03-24T04:52:42","18 SPCS","NOAA 17 DEB","2002-032BH","EARTH","TEME","UTC","SGP4","2026-03-23T13:28:30.954432","14.74495465","0.00243327","98.7453","119.2767","202.7940","157.2188","0","U","48724","999","26518","0.00185736000000","0.00012368","0.0000000000000","7024.890","97.661","663.849","629.662","DEBRIS","SMALL","US","2002-06-24","AFWTR","","5095836","316900864","0 NOAA 17 DEB","1 48724U 02032BH  26082.56146938  .00012368  00000-0  18574-2 0  9999","2 48724  98.7453 119.2767 0024333 202.7940 157.2188 14.74495465265188"
"3.0","GENERATED VIA SPACE-TRACK.ORG API","2026-03-25T17:29:05","18 SPCS","NOAA 17 DEB","2002-032BN","EARTH","TEME","UTC","SGP4","2026-03-25T13:59:18.287520","14.67016798","0.00097902","98.4775","34.8183","150.6304","209.5451","0","U","48729","999","26194","0.00249168760000","0.00013951","0.0000000000000","7048.745","98.158","677.511","663.709","DEBRIS","SMALL","US","2002-06-24","AFWTR","","5096884","317018740","0 NOAA 17 DEB","1 48729U 02032BN  26084.58285055  .00013951  00000-0  24917-2 0  9999","2 48729  98.4775  34.8183 0009790 150.6304 209.5451 14.67016798261940"
"3.0","GENERATED VIA SPACE-TRACK.ORG API","2026-03-25T17:29:05","18 SPCS","NOAA 17 DEB","2002-032BT","EARTH","TEME","UTC","SGP4","2026-03-25T06:42:47.137536","14.67266598","0.00076865","98.7394","87.7181","0.5547","359.5663","0","U","48734","999","26309","0.00207112470000","0.00011643","0.0000000000000","7047.945","98.142","675.227","664.392","DEBRIS","SMALL","US","2002-06-24","AFWTR","","5096884","317018741","0 NOAA 17 DEB","1 48734U 02032BT  26084.27971224  .00011643  00000-0  20711-2 0  9995","2 48734  98.7394  87.7181 0007686   0.5547 359.5663 14.67266598263099"
"3.0","GENERATED VIA SPACE-TRACK.ORG API","2026-03-25T17:29:05","18 SPCS","NOAA 17 DEB","2002-032CA","EARTH","TEME","UTC","SGP4","2026-03-25T11:03:18.298944","14.76211653","0.00078762","98.6953","80.9290","66.7643","293.4393","0","U","48741","999","26296","0.00289950260000","0.00020069","0.0000000000000","7019.445","97.547","646.838","635.781","DEBRIS","SMALL","US","2002-06-24","AFWTR","","5096884","317018242","0 NOAA 17 DEB","1 48741U 02032CA  26084.46062846  .00020069  00000-0  28995-2 0  9999","2 48741  98.6953  80.9290 0007876  66.7643 293.4393 14.76211653262968"
